[{"OBJECT_NAME":"STARLINK-34567","OBJECT_ID":"2025-150F","EPOCH":"2026-03-09T13:47:10.199040","MEAN_MOTION":14.98328246,"ECCENTRICITY":0.0003505,"INCLINATION":70.002,"RA_OF_ASC_NODE":134.5852,"ARG_OF_PERICENTER":264.9582,"MEAN_ANOMALY":95.1177,"EPHEMERIS_TYPE":0,"CLASSIFICATION_TYPE":"U","NORAD_CAT_ID":64795,"ELEMENT_SET_NO":999,"REV_AT_EPOCH":3650,"BSTAR":0.0014222,"MEAN_MOTION_DOT":0.00016917,"MEAN_MOTION_DDOT":0},{"OBJECT_NAME":"VANGUARD 2","OBJECT_ID":"1959-001A","EPOCH":"2026-03-09T19:18:25.550496","MEAN_MOTION":11.90268048,"ECCENTRICITY":0.14456611,"INCLINATION":32.8708,"RA_OF_ASC_NODE":101.2249,"ARG_OF_PERICENTER":211.3482,"MEAN_ANOMALY":139.2428,"EPHEMERIS_TYPE":0,"CLASSIFICATION_TYPE":"U","NORAD_CAT_ID":11,"ELEMENT_SET_NO":999,"REV_AT_EPOCH":52362,"BSTAR":0.00053091218,"MEAN_MOTION_DOT":1.038e-5,"MEAN_MOTION_DDOT":0}]
